NORAD_CAT_ID,OBJECT_NAME,OBJECT_TYPE,EPOCH,MEAN_MOTION,ECCENTRICITY,INCLINATION,RA_OF_ASC_NODE,ARG_OF_PERICENTER,MEAN_ANOMALY,BSTAR,MEAN_MOTION_DOT,MEAN_MOTION_DDOT,TLE_LINE0,TLE_LINE1,TLE_LINE2,SEMIMAJOR_AXIS,PERIOD,APOGEE,PERIGEE,DECAYED
49171.0,STARLINK-3107,PAYLOAD,2021-10-20 14:00:01,15.69734276,0.000376,70.0004,24.3297,289.1790000000001,182.7035,-0.00073133,-0.00086576,0.0,0 STARLINK-3107,1 49171U 21082AT  21293.58334491 -.00086576  00000-0 -73133-3 0  9993,2 49171  70.0004  24.3297 0003760 289.1790 182.7035 15.69734276  6983,6737.794,91.735,362.193,357.126,0.0
49171.0,STARLINK-3107,PAYLOAD,2021-10-20 22:00:00,15.6968714,0.0003794,70.0007,23.3938,287.5122,267.4323,-0.00031462,-0.0003751,0.0,0 STARLINK-3107,1 49171U 21082AT  21293.91667824 -.00037510  00000-0 -31462-3 0  9992,2 49171  70.0007  23.3938 0003794 287.5122 267.4323 15.69687140  3654,6737.929,91.738,362.351,357.23800000000006,0.0
49171.0,STARLINK-3107,PAYLOAD,2021-10-21 06:00:00,15.6967209,0.0003707,70.0012,22.4572,283.4264,354.5507,0.00051402,0.00061407,0.0,0 STARLINK-3107,1 49171U 21082AT  21294.25001157  .00061407  00000-0  51402-3 0  9997,2 49171  70.0012  22.4572 0003707 283.4264 354.5507 15.69672090  7092,6737.972,91.739,362.335,357.339,0.0
49171.0,STARLINK-3107,PAYLOAD,2021-10-21 14:00:01,15.69708962,0.0003756,70.0011,21.5204,289.6629,71.3696,0.00073064,0.00087786,0.0,0 STARLINK-3107,1 49171U 21082AT  21294.58334491  .00087786  00000-0  73064-3 0  9999,2 49171  70.0011  21.5204 0003756 289.6629  71.3696 15.69708962  3693,6737.8669999999975,91.737,362.262,357.201,0.0
49171.0,STARLINK-3107,PAYLOAD,2021-10-21 22:00:00,15.69780372,0.0003695,70.0006,20.5834,287.5658,156.5782,-0.00024297,-0.00029156,0.0,0 STARLINK-3107,1 49171U 21082AT  21294.91667824 -.00029156  00000-0 -24297-3 0  9998,2 49171  70.0006  20.5834 0003695 287.5658 156.5782 15.69780372  3682,6737.6619999999975,91.733,362.017,357.038,0.0
49171.0,STARLINK-3107,PAYLOAD,2021-10-22 06:00:02,15.69785323,0.0003626,70.0009,19.6466,283.2969,244.0608,0.00018735,0.00022246,0.0,0 STARLINK-3107,1 49171U 21082AT  21295.25002315  .00022246  00000-0  18735-3 0  9995,2 49171  70.0009  19.6466 0003626 283.2969 244.0608 15.69785323  7244,6737.648,91.732,361.956,357.07,0.0
49171.0,STARLINK-3107,PAYLOAD,2021-10-22 14:00:01,15.69770568,0.0003753,70.0006,18.7096,290.2555,320.221,0.00042594,0.00050993,0.0,0 STARLINK-3107,1 49171U 21082AT  21295.58334491  .00050993  00000-0  42594-3 0  9994,2 49171  70.0006  18.7096 0003753 290.2555 320.2210 15.69770568  3674,6737.69,91.733,362.084,357.027,0.0
49171.0,STARLINK-3107,PAYLOAD,2021-10-22 20:00:01,15.69834099,0.0003764,70.0003,18.0068,289.186,293.6569,-0.00054567,-0.00065083,0.0,0 STARLINK-3107,1 49171U 21082AT  21295.83334491 -.00065083  00000-0 -54567-3 0  9993,2 49171  70.0003  18.0068 0003764 289.1860 293.6569 15.69834099  7349,6737.509,91.729,361.91,356.838,0.0
49171.0,STARLINK-3107,PAYLOAD,2021-10-22 22:00:01,15.69836545,0.0003776,70.0005,17.7724,287.6148,46.0945,-0.00075686,-0.00089935,0.0,0 STARLINK-3107,1 49171U 21082AT  21295.91668981 -.00089935  00000-0 -75686-3 0  9993,2 49171  70.0005  17.7724 0003776 287.6148  46.0945 15.69836545  3668,6737.502,91.729,361.911,356.8230000000001,0.0
49171.0,STARLINK-3107,PAYLOAD,2021-10-23 06:00:00,15.69777896,0.000387,70.0009,16.8355,283.5706,133.2711,-3.9425e-06,-6.84e-06,0.0,0 STARLINK-3107,1 49171U 21082AT  21296.25001157 -.00000684  00000-0 -39425-5 0  9994,2 49171  70.0009  16.8355 0003870 283.5706 133.2711 15.69777896  3700,6737.669,91.733,362.142,356.927,0.0
49171.0,STARLINK-3107,PAYLOAD,2021-10-23 14:00:01,15.69758039,0.0004023,70.0008,15.8986,288.978,211.023,0.00026764,0.00031874,0.0,0 STARLINK-3107,1 49171U 21082AT  21296.58334491  .00031874  00000-0  26764-3 0  9993,2 49171  70.0008  15.8986 0004023 288.9780 211.0230 15.69758039  7455,6737.726,91.734,362.302,356.881,0.0
49171.0,STARLINK-3107,PAYLOAD,2021-10-23 22:00:00,15.69927522,0.0003882,70.0001,14.9558,286.6997,296.4463,-0.0056516,-0.00631259,0.0,0 STARLINK-3107,1 49171U 21082AT  21296.91667824 -.00631259  00000-0 -56516-2 0  9991,2 49171  70.0001  14.9558 0003882 286.6997 296.4463 15.69927522  7517,6737.241,91.724,361.722,356.491,0.0
49171.0,STARLINK-3107,PAYLOAD,2021-10-24 06:00:00,15.69760925,0.0003771,70.0005,14.0246,284.1587,22.1574,-0.00013813,-0.00016678,0.0,0 STARLINK-3107,1 49171U 21082AT  21297.25001157 -.00016678  00000-0 -13813-3 0  9996,2 49171  70.0005  14.0246 0003771 284.1587  22.1574 15.69760925  7565,6737.718000000003,91.734,362.124,357.042,0.0
49171.0,STARLINK-3107,PAYLOAD,2021-10-24 14:00:01,15.69725592,0.000384,70.0001,13.0876,290.4371,99.0143,0.00040136,0.00047932,0.0,0 STARLINK-3107,1 49171U 21082AT  21297.58334491  .00047932  00000-0  40136-3 0  9995,2 49171  70.0001  13.0876 0003840 290.4371  99.0143 15.69725592  3671,6737.819,91.736,362.271,357.097,0.0
49171.0,STARLINK-3107,PAYLOAD,2021-10-24 22:00:00,15.69774346,0.0003728,70.0,12.1504,288.5534,184.0115,-0.00035762,-0.00042734,0.0,0 STARLINK-3107,1 49171U 21082AT  21297.91667824 -.00042734  00000-0 -35762-3 0  9997,2 49171  70.0000  12.1504 0003728 288.5534 184.0115 15.69774346  3701,6737.68,91.733,362.056,357.033,0.0
49171.0,STARLINK-3107,PAYLOAD,2021-10-25 06:00:02,15.69753376,0.0003555,70.0005,11.2134,285.6476,270.1178,-0.00038525,-0.00045961,0.0,0 STARLINK-3107,1 49171U 21082AT  21298.25002315 -.00045961  00000-0 -38525-3 0  9998,2 49171  70.0005  11.2134 0003555 285.6476 270.1178 15.69753376  7728,6737.74,91.734,362.0,357.209,0.0
49171.0,STARLINK-3107,PAYLOAD,2021-10-25 20:00:01,15.6975785,0.0003576,69.9998,9.5736,290.6605,320.5384,-0.00036192,-0.00043212,0.0,0 STARLINK-3107,1 49171U 21082AT  21298.83335648 -.00043212  00000-0 -36192-3 0  9995,2 49171  69.9998   9.5736 0003576 290.6605 320.5384 15.69757850  7817,6737.727,91.734,362.001,357.182,0.0
49171.0,STARLINK-3107,PAYLOAD,2021-10-26 04:00:01,15.69739047,0.0003503,70.0,8.6367,285.9704,48.348,0.00044542,0.00053277,0.0,0 STARLINK-3107,1 49171U 21082AT  21299.16668981  .00053277  00000-0  44542-3 0  9999,2 49171  70.0000   8.6367 0003503 285.9704  48.3480 15.69739047  7866,6737.781,91.735,362.006,357.285,0.0
49171.0,STARLINK-3107,PAYLOAD,2021-10-26 12:00:00,15.69759508,0.0003684,69.9997,7.6998,291.302,126.0913,0.00012313,0.00014519,0.0,0 STARLINK-3107,1 49171U 21082AT  21299.50001157  .00014519  00000-0  12313-3 0  9990,2 49171  69.9997   7.6998 0003684 291.3020 126.0913 15.69759508  7914,6737.722,91.734,362.069,357.105,0.0
49171.0,STARLINK-3107,PAYLOAD,2021-10-26 14:00:04,15.69760418,0.0003731,69.9997,7.4653,292.3357,236.0408,0.00011883,0.00014004,0.0,0 STARLINK-3107,1 49171U 21082AT  21299.58337963  .00014004  00000-0  11883-3 0  9995,2 49171  69.9997   7.4653 0003731 292.3357 236.0408 15.69760418  3668,6737.719,91.734,362.098,357.071,0.0
49171.0,STARLINK-3107,PAYLOAD,2021-10-27 04:00:00,15.69729559,0.0003787,69.9998,5.8254,284.8851,298.786,0.00041524,0.00049614,0.0,0 STARLINK-3107,1 49171U 21082AT  21300.16667824  .00049614  00000-0  41524-3 0  9994,2 49171  69.9998   5.8254 0003787 284.8851 298.7860 15.69729559  8027,6737.808000000001,91.736,362.224,357.121,0.0
49171.0,STARLINK-3107,PAYLOAD,2021-10-27 12:00:00,15.69766086,0.0003845,69.9999,4.8883,290.8337,15.9647,-0.00030666,-0.0003669,0.0,0 STARLINK-3107,1 49171U 21082AT  21300.50001157 -.00036690  00000-0 -30666-3 0  9990,2 49171  69.9999   4.8883 0003845 290.8337  15.9647 15.69766086  8079,6737.703,91.733,362.159,356.978,0.0
49171.0,STARLINK-3107,PAYLOAD,2021-10-27 14:00:01,15.69762627,0.000384,70.0,4.6539,292.0071,125.5769,-0.00035437,-0.00042331,0.0,0 STARLINK-3107,1 49171U 21082AT  21300.58334491 -.00042331  00000-0 -35437-3 0  9998,2 49171  70.0000   4.6539 0003840 292.0071 125.5769 15.69762627  3676,6737.7130000000025,91.734,362.165,356.991,0.0
49171.0,STARLINK-3107,PAYLOAD,2021-10-28 06:00:00,15.69755929,0.0003592,70.0,2.7802,287.1431,296.6572,-7.6394e-05,-9.325e-05,0.0,0 STARLINK-3107,1 49171U 21082AT  21301.25001157 -.00009325  00000-0 -76394-4 0  9997,2 49171  70.0000   2.7802 0003592 287.1431 296.6572 15.69755929  8198,6737.732,91.734,362.018,357.177,0.0
49171.0,STARLINK-3107,PAYLOAD,2021-10-28 14:00:01,15.69729131,0.0003738,69.9996,1.8431,293.6759,13.3267,0.00052865,0.00063325,0.0,0 STARLINK-3107,1 49171U 21082AT  21301.58335648  .00063325  00000-0  52865-3 0  9992,2 49171  69.9996   1.8431 0003738 293.6759  13.3267 15.69729131  3662,6737.809,91.736,362.193,357.155,0.0
49171.0,STARLINK-3107,PAYLOAD,2021-10-28 22:00:00,15.69771969,0.0003748,69.9996,0.9058,288.9468,101.1196,-0.00032442,-0.00038801,0.0,0 STARLINK-3107,1 49171U 21082AT  21301.91667824 -.00038801  00000-0 -32442-3 0  9995,2 49171  69.9996   0.9058 0003748 288.9468 101.1196 15.69771969  3665,6737.686,91.733,362.077,357.026,0.0
49171.0,STARLINK-3107,PAYLOAD,2021-10-29 06:00:00,15.69748576,0.0003805,70.0002,359.9602,292.9364,180.03099999999995,-2.3016e-05,-2.959e-05,0.0,0 STARLINK-3107,1 49171U 21082AT  21302.25001157 -.00002959  00000-0 -23016-4 0  9997,2 49171  70.0002 359.9602 0003805 292.9364 180.0310 15.69748576  8344,6737.753000000002,91.734,362.182,357.055,0.0
49171.0,STARLINK-3107,PAYLOAD,2021-10-29 14:00:01,15.69721868,0.0004018,70.0001,359.0317,292.0198,264.3673,0.0005412,0.00064829,0.0,0 STARLINK-3107,1 49171U 21082AT  21302.58335648  .00064829  00000-0  54120-3 0  9999,2 49171  70.0001 359.0317 0004018 292.0198 264.3673 15.69721868  3663,6737.83,91.736,362.402,356.98800000000006,0.0
49171.0,STARLINK-3107,PAYLOAD,2021-10-29 22:00:01,15.69752628,0.0004053999999999,70.0001,358.0863,281.0616,358.2211,-7.9406e-05,-9.684e-05,0.0,0 STARLINK-3107,1 49171U 21082AT  21302.91668981 -.00009684  00000-0 -79406-4 0  9990,2 49171  70.0001 358.0863 0004054 281.0616 358.2211 15.69752628  3660,6737.7419999999975,91.734,362.338,356.875,0.0
